[{"OBJECT_NAME":"JILIN-1 GAOFEN 2F","OBJECT_ID":"2021-097A","EPOCH":"2026-03-09T22:15:16.366464","MEAN_MOTION":15.06938169,"ECCENTRICITY":0.00186372,"INCLINATION":97.6538,"RA_OF_ASC_NODE":195.5232,"ARG_OF_PERICENTER":201.1609,"MEAN_ANOMALY":158.885,"EPHEMERIS_TYPE":0,"CLASSIFICATION_TYPE":"U","NORAD_CAT_ID":49338,"ELEMENT_SET_NO":999,"REV_AT_EPOCH":24136,"BSTAR":0.0003789548,"MEAN_MOTION_DOT":5.624e-5,"MEAN_MOTION_DDOT":0},{"OBJECT_NAME":"STARLINK-3587","OBJECT_ID":"2022-022AS","EPOCH":"2026-03-09T22:48:17.867520","MEAN_MOTION":15.08840626,"ECCENTRICITY":0.00014025,"INCLINATION":53.2202,"RA_OF_ASC_NODE":357.9501,"ARG_OF_PERICENTER":108.976,"MEAN_ANOMALY":251.1384,"EPHEMERIS_TYPE":0,"CLASSIFICATION_TYPE":"U","NORAD_CAT_ID":51892,"ELEMENT_SET_NO":999,"REV_AT_EPOCH":22328,"BSTAR":-3.0248478e-5,"MEAN_MOTION_DOT":-7.69e-6,"MEAN_MOTION_DDOT":0}]
